API VERSION: 1.2
API SOURCE: NASA/JPL Horizons API



*******************************************************************************
Ephemeris / API_USER Mon Apr 13 11:58:55 2026 Pasadena, USA      / Horizons
*******************************************************************************
Target body name: Earth (399)                     {source: DE441}
Center body name: Sun (10)                        {source: DE441}
Center-site name: BODY CENTER
*******************************************************************************
Start time      : A.D. 2025-Jun-20 11:32:00.0000 TDB
Stop  time      : A.D. 2025-Jun-22 11:32:00.0000 TDB
Step-size       : 60 minutes
*******************************************************************************
Center geodetic : 0.0, 0.0, 0.0                   {E-lon(deg),Lat(deg),Alt(km)}
Center cylindric: 0.0, 0.0, 0.0                   {E-lon(deg),Dxy(km),Dz(km)}
Center radii    : 695700.0, 695700.0, 695700.0 km {Equator_a, b, pole_c}
Output units    : AU-D
Calendar mode   : Mixed Julian/Gregorian
Output type     : GEOMETRIC cartesian states
Output format   : 3 (position, velocity, LT, range, range-rate)
Reference frame : Ecliptic of J2000.0
*******************************************************************************
            JDTDB,            Calendar Date (TDB),                      X,                      Y,                      Z,                     VX,                     VY,                     VZ,                     LT,                     RG,                     RR,
**************************************************************************************************************************************************************************************************************************************************************************
$$SOE
2460846.980555556, A.D. 2025-Jun-20 11:32:00.0000, -1.693475226503514E-02, -1.016016329267061E+00,  5.925214006703701E-05,  1.692601662545680E-02, -3.575199944658909E-04, -6.342087407747257E-07,  5.868836001392081E-03,  1.016157453686390E+00,  7.539010433343287E-05,
2460847.022222222, A.D. 2025-Jun-20 12:32:00.0000, -1.622949602040315E-02, -1.016030976635324E+00,  5.922576795685074E-05,  1.692628169518405E-02, -3.455535471206072E-04, -6.316421185832060E-07,  5.868854117678921E-03,  1.016160590424219E+00,  7.517320575004715E-05,
2460847.063888889, A.D. 2025-Jun-20 13:32:00.0000, -1.552422890897102E-02, -1.016045125384783E+00,  5.919950409134570E-05,  1.692653823042368E-02, -3.335862930657664E-04, -6.290130380182733E-07,  5.868872181693551E-03,  1.016163718111397E+00,  7.495567322892296E-05,
2460847.105555556, A.D. 2025-Jun-20 14:32:00.0000, -1.481895128652239E-02, -1.016058775481977E+00,  5.917335106740492E-05,  1.692678622253644E-02, -3.216182396041529E-04, -6.263217655039317E-07,  5.868890193283570E-03,  1.016166836721536E+00,  7.473750808399267E-05,
2460847.147222222, A.D. 2025-Jun-20 15:32:00.0000, -1.411366350920083E-02, -1.016071926893750E+00,  5.914731147085495E-05,  1.692702566288515E-02, -3.096493941505860E-04, -6.235685774336147E-07,  5.868908152296915E-03,  1.016169946228304E+00,  7.451871171466665E-05,
2460847.188888889, A.D. 2025-Jun-20 16:32:00.0000, -1.340836593350968E-02, -1.016084579587261E+00,  5.912138787537013E-05,  1.692725654283629E-02, -2.976797642325155E-04, -6.207537602039769E-07,  5.868926058581854E-03,  1.016173046605432E+00,  7.429928560639911E-05,
2460847.230555556, A.D. 2025-Jun-20 17:32:00.0000, -1.270305891631204E-02, -1.016096733529980E+00,  5.909558284252244E-05,  1.692747885376175E-02, -2.857093574905945E-04, -6.178776102399327E-07,  5.868943911987027E-03,  1.016176137826713E+00,  7.407923133123239E-05,
2460847.272222222, A.D. 2025-Jun-20 18:32:00.0000, -1.199774281483021E-02, -1.016108388689703E+00,  5.906989892198068E-05,  1.692769258704051E-02, -2.737381816792218E-04, -6.149404340208662E-07,  5.868961712361474E-03,  1.016179219866008E+00,  7.385855054832803E-05,
2460847.313888889, A.D. 2025-Jun-20 19:32:00.0000, -1.129241798664561E-02, -1.016119545034548E+00,  5.904433864976733E-05,  1.692789773406037E-02, -2.617662446670583E-04, -6.119425481042916E-07,  5.868979459554633E-03,  1.016182292697248E+00,  7.363724500446835E-05,
2460847.355555556, A.D. 2025-Jun-20 20:32:00.0000, -1.058708478969827E-02, -1.016130202532964E+00,  5.901890454830836E-05,  1.692809428621972E-02, -2.497935544375162E-04, -6.088842791439027E-07,  5.868997153416372E-03,  1.016185356294440E+00,  7.341531653454364E-05,
2460847.397222222, A.D. 2025-Jun-20 21:32:00.0000, -9.881743582286322E-03, -1.016140361153736E+00,  5.899359912703090E-05,  1.692828223492930E-02, -2.378201190892164E-04, -6.057659639080887E-07,  5.869014793797021E-03,  1.016188410631668E+00,  7.319276706201430E-05,
2460847.438888889, A.D. 2025-Jun-20 22:32:00.0000, -9.176394723065614E-03, -1.016150020865987E+00,  5.896842488047067E-05,  1.692846157161403E-02, -2.258459468364153E-04, -6.025879492925971E-07,  5.869032380547376E-03,  1.016191455683098E+00,  7.296959859934685E-05,
2460847.480555556, A.D. 2025-Jun-20 23:32:00.0000, -8.471038571048825E-03, -1.016159181639186E+00,  5.894338428891939E-05,  1.692863228771482E-02, -2.138710460094058E-04, -5.993505923316112E-07,  5.869049913518734E-03,  1.016194491422983E+00,  7.274581324843774E-05,
2460847.522222222, A.D. 2025-Jun-21 00:32:00.0000, -7.765675485604998E-03, -1.016167843443152E+00,  5.891847981693075E-05,  1.692879437469041E-02, -2.018954250548768E-04, -5.960542602065024E-07,  5.869067392562898E-03,  1.016197517825665E+00,  7.252141320099519E-05,
2460847.563888889, A.D. 2025-Jun-21 01:32:00.0000, -7.060305826458609E-03, -1.016176006248058E+00,  5.889371391441602E-05,  1.692894782401925E-02, -1.899190925362504E-04, -5.926993302485790E-07,  5.869084817532223E-03,  1.016200534865578E+00,  7.229640073891406E-05,
2460847.605555556, A.D. 2025-Jun-21 02:32:00.0000, -6.354929953688801E-03, -1.016183670024435E+00,  5.886908901460211E-05,  1.692909262720136E-02, -1.779420571339790E-04, -5.892861899421087E-07,  5.869102188279610E-03,  1.016203542517254E+00,  7.207077823461302E-05,
2460847.647222222, A.D. 2025-Jun-21 03:32:00.0000, -5.649548227728313E-03, -1.016190834743179E+00,  5.884460753472885E-05,  1.692922877576026E-02, -1.659643276458078E-04, -5.858152369214885E-07,  5.869119504658555E-03,  1.016206540755325E+00,  7.184454815134983E-05,
2460847.688888889, A.D. 2025-Jun-21 04:32:00.0000, -4.944161009362576E-03, -1.016197500375556E+00,  5.882027187545129E-05,  1.692935626124491E-02, -1.539859129870060E-04, -5.822868789665241E-07,  5.869136766523150E-03,  1.016209529554529E+00,  7.161771304350899E-05,
2460847.730555556, A.D. 2025-Jun-21 05:32:00.0000, -4.238768659728691E-03, -1.016203666893204E+00,  5.879608441974406E-05,  1.692947507523162E-02, -1.420068221905605E-04, -5.787015339929401E-07,  5.869153973728113E-03,  1.016212508889712E+00,  7.139027555686013E-05,
2460847.772222222, A.D. 2025-Jun-21 06:32:00.0000, -3.533371540314023E-03, -1.016209334268141E+00,  5.877204753315036E-05,  1.692958520932600E-02, -1.300270644073305E-04, -5.750596300409507E-07,  5.869171126128813E-03,  1.016215478735831E+00,  7.116223842879218E-05,
2460847.813888889, A.D. 2025-Jun-21 07:32:00.0000, -2.827970012955065E-03, -1.016214502472769E+00,  5.874816356328395E-05,  1.692968665516499E-02, -1.180466489061676E-04, -5.713616052588037E-07,  5.869188223581285E-03,  1.016218439067959E+00,  7.093360448851398E-05,
2460847.855555556, A.D. 2025-Jun-21 08:32:00.0000, -2.122564439836180E-03, -1.016219171479879E+00,  5.872443483918165E-05,  1.692977940441883E-02, -1.060655850739960E-04, -5.676079078853012E-07,  5.869205265942260E-03,  1.016221389861290E+00,  7.070437665722449E-05,
2460847.897222222, A.D. 2025-Jun-21 09:32:00.0000, -1.417155183487985E-03, -1.016223341262653E+00,  5.870086367120377E-05,  1.692986344879303E-02, -9.408388241585505E-05, -5.637989962233443E-07,  5.869222253069178E-03,  1.016224331091140E+00,  7.047455794825962E-05,
2460847.938888889, A.D. 2025-Jun-21 10:32:00.0000, -7.117426067859058E-04, -1.016227011794674E+00,  5.867745234993843E-05,  1.692993878003043E-02, -8.210155055490007E-05, -5.599353386173194E-07,  5.869239184820223E-03,  1.016227262732955E+00,  7.024415146719992E-05,
2460847.980555556, A.D. 2025-Jun-21 11:32:00.0000, -6.327072948728920E-06, -1.016230183049929E+00,  5.865420314669955E-05,  1.693000538991325E-02, -7.011859923236626E-05, -5.560174134203119E-07,  5.869256061054326E-03,  1.016230184762310E+00,  7.001316041195028E-05,
2460848.022222222, A.D. 2025-Jun-21 12:32:00.0000,  6.990910544633619E-04, -1.016232855002810E+00,  5.863111831243120E-05,  1.693006327026510E-02, -5.813503830748596E-05, -5.520457089606118E-07,  5.869272881631210E-03,  1.016233097154916E+00,  6.978158807278807E-05,
2460848.063888889, A.D. 2025-Jun-21 13:32:00.0000,  1.404511411550260E-03, -1.016235027628126E+00,  5.860820007765781E-05,  1.693011241295304E-02, -4.615087775737128E-05, -5.480207235036471E-07,  5.869289646411396E-03,  1.016235999886623E+00,  6.954943783237636E-05,
2460848.105555556, A.D. 2025-Jun-21 14:32:00.0000,  2.109933634073973E-03, -1.016236700901102E+00,  5.858545065178685E-05,  1.693015280988971E-02, -3.416612767684951E-05, -5.439429652104085E-07,  5.869306355256228E-03,  1.016238892933424E+00,  6.931671316574648E-05,
2460848.147222222, A.D. 2025-Jun-21 15:32:00.0000,  2.815357357460609E-03, -1.016237874797387E+00,  5.856287222300931E-05,  1.693018445303532E-02, -2.218079827825588E-05, -5.398129520912466E-07,  5.869323008027900E-03,  1.016241776271458E+00,  6.908341764024495E-05,
2460848.188888889, A.D. 2025-Jun-21 16:32:00.0000,  3.520782216802171E-03, -1.016238549293056E+00,  5.854046695760236E-05,  1.693020733439980E-02, -1.019489989118501E-05, -5.356312119577023E-07,  5.869339604589478E-03,  1.016244649877016E+00,  6.884955491544323E-05,
